NORAD_CAT_ID,OBJECT_NAME,OBJECT_TYPE,EPOCH,MEAN_MOTION,ECCENTRICITY,INCLINATION,RA_OF_ASC_NODE,ARG_OF_PERICENTER,MEAN_ANOMALY,BSTAR,MEAN_MOTION_DOT,MEAN_MOTION_DDOT,TLE_LINE0,TLE_LINE1,TLE_LINE2,SEMIMAJOR_AXIS,PERIOD,APOGEE,PERIGEE,DECAYED
54015.0,STARLINK-5055,PAYLOAD,2024-07-15 18:18:50,15.08834175,0.0001284,53.2172,26.1914,98.3141,261.7997,7.4216e-07,-2.76e-06,0.0,0 STARLINK-5055,1 54015U 22125BD  24197.76308491 -.00000276  00000-0  74216-6 0  9990,2 54015  53.2172  26.1914 0001284  98.3141 261.7997 15.08834175 98786,6917.898,95.438,540.651,538.875,0.0
54015.0,STARLINK-5055,PAYLOAD,2024-07-16 05:26:32,15.08845587,0.0001273,53.2174,24.1094,89.7945,270.3193,0.00098354,0.00015402,0.0,0 STARLINK-5055,1 54015U 22125BD  24198.22676619  .00015402  00000-0  98354-3 0  9994,2 54015  53.2174  24.1094 0001273  89.7945 270.3193 15.08845587 98850,6917.863,95.437,540.609,538.848,0.0
54015.0,STARLINK-5055,PAYLOAD,2024-07-16 19:45:00,15.08849901,0.0001192,53.2169,21.4325,87.8283,272.2846,0.00096343,0.00015082,0.0,0 STARLINK-5055,1 54015U 22125BD  24198.82292789  .00015082  00000-0  96343-3 0  9992,2 54015  53.2169  21.4325 0001192  87.8283 272.2846 15.08849901 98899,6917.85,95.437,540.54,538.891,0.0
54015.0,STARLINK-5055,PAYLOAD,2024-07-17 11:38:52,15.0883003,9.35e-05,53.2155,18.4591,85.5911,274.5188,0.00062125,9.61e-05,0.0,0 STARLINK-5055,1 54015U 22125BD  24199.48532564  .00009610  00000-0  62125-3 0  9994,2 54015  53.2155  18.4591 0000935  85.5911 274.5188 15.08830030 99047,6917.911,95.438,540.423,539.129,0.0
54015.0,STARLINK-5055,PAYLOAD,2024-07-17 19:35:48,15.08833034,0.0001073,53.216,16.9729,67.3248,292.7857,0.001685,0.00026625,0.0,0 STARLINK-5055,1 54015U 22125BD  24199.81652885  .00026625  00000-0  16850-2 0  9998,2 54015  53.2160  16.9729 0001073  67.3248 292.7857 15.08833034 99046,6917.902,95.438,540.509,539.024,0.0
54015.0,STARLINK-5055,PAYLOAD,2024-07-18 11:29:39,15.08827554,0.0001236,53.216,14.0005,76.557,283.556,0.00040653,6.186e-05,0.0,0 STARLINK-5055,1 54015U 22125BD  24200.47893289  .00006186  00000-0  40653-3 0  9997,2 54015  53.2160  14.0005 0001236  76.5570 283.5560 15.08827554 99198,6917.918,95.438,540.638,538.928,0.0
54015.0,STARLINK-5055,PAYLOAD,2024-07-18 17:51:12,15.08844655,0.0001246,53.2162,12.8093,91.7221,268.3914,0.00068909,0.00010697,0.0,0 STARLINK-5055,1 54015U 22125BD  24200.74389185  .00010697  00000-0  68909-3 0  9998,2 54015  53.2162  12.8093 0001246  91.7221 268.3914 15.08844655 99236,6917.866,95.437,540.593,538.869,0.0
54015.0,STARLINK-5055,PAYLOAD,2024-07-19 11:20:27,15.08848377,0.0001235,53.2151,9.5386,76.3281,283.7849,0.00097038,0.00015193,0.0,0 STARLINK-5055,1 54015U 22125BD  24201.47253496  .00015193  00000-0  97038-3 0  9995,2 54015  53.2151   9.5386 0001235  76.3281 283.7849 15.08848377 99340,6917.855,95.437,540.574,538.865,0.0
54015.0,STARLINK-5055,PAYLOAD,2024-07-19 14:31:13,15.08843249,0.0001385,53.2166,8.9425,88.817,271.2981,0.00047153,7.225e-05,0.0,0 STARLINK-5055,1 54015U 22125BD  24201.60501482  .00007225  00000-0  47153-3 0  9991,2 54015  53.2166   8.9425 0001385  88.8170 271.2981 15.08843249 99313,6917.87,95.437,540.694,538.777,0.0
54015.0,STARLINK-5055,PAYLOAD,2024-07-19 17:41:59,15.08844988,0.0001238,53.2155,8.3468,87.1379,272.9754,0.00047735,7.318e-05,0.0,0 STARLINK-5055,1 54015U 22125BD  24201.73749416  .00007318  00000-0  47735-3 0  9995,2 54015  53.2155   8.3468 0001238  87.1379 272.9754 15.08844988 99331,6917.865,95.437,540.587,538.874,0.0
54015.0,STARLINK-5055,PAYLOAD,2024-07-20 11:11:14,15.0884196,0.0001344,53.2169,5.0757,92.2369,267.8777,0.00017863,2.556e-05,0.0,0 STARLINK-5055,1 54015U 22125BD  24202.46613479  .00002556  00000-0  17863-3 0  9993,2 54015  53.2169   5.0757 0001344  92.2369 267.8777 15.08841960 99497,6917.874,95.437,540.669,538.81,0.0
54015.0,STARLINK-5055,PAYLOAD,2024-07-20 14:22:00,15.08840086,0.0001312,53.2166,4.4799,91.4146,268.6996,0.0001426,1.982e-05,0.0,0 STARLINK-5055,1 54015U 22125BD  24202.59861570  .00001982  00000-0  14260-3 0  9994,2 54015  53.2166   4.4799 0001312  91.4146 268.6996 15.08840086 99469,6917.88,95.438,540.653,538.838,0.0
54015.0,STARLINK-5055,PAYLOAD,2024-07-20 15:57:23,15.08837611,0.0001176,53.2173,4.1849,84.0007,276.1119,0.00010814,1.434e-05,0.0,0 STARLINK-5055,1 54015U 22125BD  24202.66485731  .00001434  00000-0  10814-3 0  9996,2 54015  53.2173   4.1849 0001176  84.0007 276.1119 15.08837611 99474,6917.888,95.438,540.566,538.939,0.0
54015.0,STARLINK-5055,PAYLOAD,2024-07-21 14:12:47,15.0883954,0.0001031,53.2176,0.02,106.0963,254.0143,8.2654e-05,1.028e-05,0.0,0 STARLINK-5055,1 54015U 22125BD  24203.59221659  .00001028  00000-0  82654-4 0  9997,2 54015  53.2176   0.0200 0001031 106.0963 254.0143 15.08839540 99610,6917.882,95.438,540.46,539.034,0.0
54015.0,STARLINK-5055,PAYLOAD,2024-07-21 17:23:33,15.08842753,0.0001153,53.2175,359.4261,103.4487,256.6634,0.00012269,1.665e-05,0.0,0 STARLINK-5055,1 54015U 22125BD  24203.72469489  .00001665  00000-0  12269-3 0  9998,2 54015  53.2175 359.4261 0001153 103.4487 256.6634 15.08842753 99684,6917.872,95.437,540.535,538.939,0.0
54015.0,STARLINK-5055,PAYLOAD,2024-07-22 09:17:25,15.08840518,0.0001314,53.2183,356.4538,110.098,250.0153,0.00015139,2.122e-05,0.0,0 STARLINK-5055,1 54015U 22125BD  24204.38709634  .00002122  00000-0  15139-3 0  9998,2 54015  53.2183 356.4538 0001314 110.0980 250.0153 15.08840518 99735,6917.879,95.438,540.653,538.835,0.0
54015.0,STARLINK-5055,PAYLOAD,2024-07-23 18:40:30,15.08847768,0.0001307,53.2178,350.2089,103.9602,256.1535,0.00017107,2.436e-05,0.0,0 STARLINK-5055,1 54015U 22125BD  24205.77813108  .00002436  00000-0  17107-3 0  9999,2 54015  53.2178 350.2089 0001307 103.9602 256.1535 15.08847768 99999,6917.857,95.437,540.626,538.817,0.0
54015.0,STARLINK-5055,PAYLOAD,2024-07-24 08:58:59,15.08828269,0.0001218,53.2181,347.534,101.1223,258.9906,-0.00012916,-2.342e-05,0.0,0 STARLINK-5055,1 54015U 22125BD  24206.37430184 -.00002342  00000-0 -12916-3 0  9996,2 54015  53.2181 347.5340 0001218 101.1223 258.9906 15.08828269100082,6917.916,95.438,540.624,538.939,0.0
54015.0,STARLINK-5055,PAYLOAD,2024-07-26 02:19:01,15.08842275,0.0001239,53.2166,339.8022,83.8427,276.2707,0.0001865,2.682e-05,0.0,0 STARLINK-5055,1 54015U 22125BD  24208.09653994  .00002682  00000-0  18650-3 0  9999,2 54015  53.2166 339.8022 0001239  83.8427 276.2707 15.08842275100345,6917.873,95.437,540.596,538.881,0.0
54015.0,STARLINK-5055,PAYLOAD,2024-07-26 13:26:44,15.08824285,0.0001438,53.2177,337.7214,76.7553,283.3599,0.00071097,0.0001104,0.0,0 STARLINK-5055,1 54015U 22125BD  24208.56023266  .00011040  00000-0  71097-3 0  9996,2 54015  53.2177 337.7214 0001438  76.7553 283.3599 15.08824285100360,6917.928,95.439,540.788,538.799,0.0
54015.0,STARLINK-5055,PAYLOAD,2024-07-26 15:02:09,15.08808775,0.0001802,53.2178,337.4206,109.4979,250.6208,0.0016149,0.00025485,0.0,0 STARLINK-5055,1 54015U 22125BD  24208.62650096  .00025485  00000-0  16149-2 0  9994,2 54015  53.2178 337.4206 0001802 109.4979 250.6208 15.08808775100427,6917.976,95.44,541.087,538.594,0.0
54015.0,STARLINK-5055,PAYLOAD,2024-07-27 02:09:47,15.0886564,6.17e-05,53.2178,335.3403,90.963,269.1433,0.00012693,1.734e-05,0.0,0 STARLINK-5055,1 54015U 22125BD  24209.09012809  .00001734  00000-0  12693-3 0  9992,2 54015  53.2178 335.3403 0000617  90.9630 269.1433 15.08865640100490,6917.802,95.436,540.094,539.24,0.0
54015.0,STARLINK-5055,PAYLOAD,2024-07-27 06:55:57,15.08845957,0.0002278,53.2126,334.4482,90.3913,269.7341,9.3478e-05,1.2e-05,0.0,0 STARLINK-5055,1 54015U 22125BD  24209.28885862  .00001200  00000-0  93478-4 0  9999,2 54015  53.2126 334.4482 0002278  90.3913 269.7341 15.08845957100520,6917.862,95.437,541.303,538.151,0.0
54015.0,STARLINK-5055,PAYLOAD,2024-07-27 13:17:30,15.08823654,0.0001568,53.2175,333.2612,80.4713,279.6456,-0.00023767,-4.067e-05,0.0,0 STARLINK-5055,1 54015U 22125BD  24209.55383033 -.00004067  00000-0 -23767-3 0  9991,2 54015  53.2175 333.2612 0001568  80.4713 279.6456 15.08823654100511,6917.93,95.439,540.88,538.711,0.0
54015.0,STARLINK-5055,PAYLOAD,2024-07-28 13:08:17,15.08837864,0.000134,53.2183,328.7973,113.6344,246.4789,0.00014438,2.011e-05,0.0,0 STARLINK-5055,1 54015U 22125BD  24210.54742545  .00002011  00000-0  14438-3 0  9999,2 54015  53.2183 328.7973 0001340 113.6344 246.4789 15.08837864100717,6917.887,95.438,540.679,538.825,0.0
54015.0,STARLINK-5055,PAYLOAD,2024-07-28 17:54:27,15.08845474,0.0001337,53.2171,327.9077,93.1898,266.9247,0.00052182,8.028e-05,0.0,0 STARLINK-5055,1 54015U 22125BD  24210.74614698  .00008028  00000-0  52182-3 0  9990,2 54015  53.2171 327.9077 0001337  93.1898 266.9247 15.08845474100691,6917.864,95.437,540.654,538.804,0.0
54015.0,STARLINK-5055,PAYLOAD,2024-07-29 14:34:27,15.0884978,0.000135,53.2169,324.0405,89.576,270.5387,0.00039724,6.041e-05,0.0,0 STARLINK-5055,1 54015U 22125BD  24211.60726693  .00006041  00000-0  39724-3 0  9995,2 54015  53.2169 324.0405 0001350  89.5760 270.5387 15.08849780100828,6917.85,95.437,540.649,538.782,0.0
54015.0,STARLINK-5055,PAYLOAD,2024-07-29 16:09:50,15.08850217,0.0001287,53.2168,323.7425,86.8156,273.2984,0.00039354,5.983e-05,0.0,0 STARLINK-5055,1 54015U 22125BD  24211.67350643  .00005983  00000-0  39354-3 0  9993,2 54015  53.2168 323.7425 0001287  86.8156 273.2984 15.08850217100889,6917.849,95.437,540.604,538.824,0.0
54015.0,STARLINK-5055,PAYLOAD,2024-07-30 00:06:46,15.0886106,0.0001315,53.2172,322.2554,86.5611,273.5531,0.0005727,8.844e-05,0.0,0 STARLINK-5055,1 54015U 22125BD  24212.00470116  .00008844  00000-0  57270-3 0  9995,2 54015  53.2172 322.2554 0001315  86.5611 273.5531 15.08861060100931,6917.816,95.436,540.591,538.771,0.0
54015.0,STARLINK-5055,PAYLOAD,2024-07-30 14:25:14,15.08861053,0.0002927,53.2169,319.5803,93.3026,266.8301,0.00060746,9.399e-05,0.0,0 STARLINK-5055,1 54015U 22125BD  24212.60086195  .00009399  00000-0  60746-3 0  9999,2 54015  53.2169 319.5803 0002927  93.3026 266.8301 15.08861053100975,6917.816,95.436,541.706,537.656,0.0
